{
  "norad_id": 50814,
  "name": "STARLINK-3324",
  "history": [
    {
      "epoch": "2026-03-28T17:12:56.467008Z",
      "apogee_km": 540.7449469458379,
      "perigee_km": 538.7152447399176,
      "latitude_deg": 2.27833812463661e-06,
      "longitude_deg": -0.6646364324552825,
      "height_km": 540.4282732011004,
      "semi_major_axis_km": 6917.8670958428775,
      "eccentricity": 0.0001467,
      "inclination_deg": 53.2169,
      "raan_deg": 83.7044,
      "arg_perigee_deg": 78.7855,
      "mean_anomaly_deg": 281.3302,
      "mean_motion_rev_day": 15.08844349
    },
    {
      "epoch": "2026-03-29T04:20:38.000832Z",
      "apogee_km": 540.7058866893276,
      "perigee_km": 538.7149302051757,
      "latitude_deg": -1.4771247189768715e-05,
      "longitude_deg": -170.12662581975886,
      "height_km": 540.4233537183887,
      "semi_major_axis_km": 6917.847408447251,
      "eccentricity": 0.0001439,
      "inclination_deg": 53.2172,
      "raan_deg": 81.6225,
      "arg_perigee_deg": 79.4261,
      "mean_anomaly_deg": 280.6893,
      "mean_motion_rev_day": 15.0885079
    }
  ]
}